CCSDS_OMM_VERS = 2.0
CREATION_DATE  = 
ORIGINATOR     = 

OBJECT_NAME    = CYGNUS NG-23
OBJECT_ID      = 2025-208A
CENTER_NAME    = EARTH
REF_FRAME      = TEME
TIME_SYSTEM    = UTC
MEAN_ELEMENT_THEORY = SGP/SGP4

EPOCH          = 2026-01-13T05:00:55.752768
MEAN_MOTION    = 15.49269250
ECCENTRICITY   = .00077414
INCLINATION    = 51.6330
RA_OF_ASC_NODE = 346.6801
ARG_OF_PERICENTER = 12.6584
MEAN_ANOMALY   = 347.4598

EPHEMERIS_TYPE = 0
CLASSIFICATION_TYPE = U
NORAD_CAT_ID   = 65616
ELEMENT_SET_NO = 999
REV_AT_EPOCH   = 22
BSTAR          = .16698581E-3
MEAN_MOTION_DOT = .8852E-4
MEAN_MOTION_DDOT = 0

CCSDS_OMM_VERS = 2.0
CREATION_DATE  = 
ORIGINATOR     = 

OBJECT_NAME    = DRAGONFLY
OBJECT_ID      = 1998-067XH
CENTER_NAME    = EARTH
REF_FRAME      = TEME
TIME_SYSTEM    = UTC
MEAN_ELEMENT_THEORY = SGP/SGP4

EPOCH          = 2026-01-13T06:15:42.206688
MEAN_MOTION    = 15.88290760
ECCENTRICITY   = .00081045
INCLINATION    = 51.6217
RA_OF_ASC_NODE = 332.7016
ARG_OF_PERICENTER = 101.8140
MEAN_ANOMALY   = 258.3775

EPHEMERIS_TYPE = 0
CLASSIFICATION_TYPE = U
NORAD_CAT_ID   = 65729
ELEMENT_SET_NO = 999
REV_AT_EPOCH   = 1814
BSTAR          = .12320381E-2
MEAN_MOTION_DOT = .362063E-2
MEAN_MOTION_DDOT = 0

CCSDS_OMM_VERS = 2.0
CREATION_DATE  = 
ORIGINATOR     = 

OBJECT_NAME    = 1998-067XK
OBJECT_ID      = 1998-067XK
CENTER_NAME    = EARTH
REF_FRAME      = TEME
TIME_SYSTEM    = UTC
MEAN_ELEMENT_THEORY = SGP/SGP4

EPOCH          = 2026-01-13T03:06:31.767840
MEAN_MOTION    = 15.73432001
ECCENTRICITY   = .00049147
INCLINATION    = 51.6285
RA_OF_ASC_NODE = 337.1409
ARG_OF_PERICENTER = 72.1641
MEAN_ANOMALY   = 287.9894

EPHEMERIS_TYPE = 0
CLASSIFICATION_TYPE = U
NORAD_CAT_ID   = 65731
ELEMENT_SET_NO = 999
REV_AT_EPOCH   = 1807
BSTAR          = .76195208E-3
MEAN_MOTION_DOT = .109037E-2
MEAN_MOTION_DDOT = 0

CCSDS_OMM_VERS = 2.0
CREATION_DATE  = 
ORIGINATOR     = 

OBJECT_NAME    = RSP-03
OBJECT_ID      = 1998-067XL
CENTER_NAME    = EARTH
REF_FRAME      = TEME
TIME_SYSTEM    = UTC
MEAN_ELEMENT_THEORY = SGP/SGP4

EPOCH          = 2026-01-13T02:44:10.084704
MEAN_MOTION    = 15.79550150
ECCENTRICITY   = .00059708
INCLINATION    = 51.6260
RA_OF_ASC_NODE = 335.5089
ARG_OF_PERICENTER = 81.6480
MEAN_ANOMALY   = 278.5198

EPHEMERIS_TYPE = 0
CLASSIFICATION_TYPE = U
NORAD_CAT_ID   = 65732
ELEMENT_SET_NO = 999
REV_AT_EPOCH   = 1810
BSTAR          = .93052603E-3
MEAN_MOTION_DOT = .17623E-2
MEAN_MOTION_DDOT = 0

CCSDS_OMM_VERS = 2.0
CREATION_DATE  = 
ORIGINATOR     = 

OBJECT_NAME    = GHS-01
OBJECT_ID      = 1998-067XM
CENTER_NAME    = EARTH
REF_FRAME      = TEME
TIME_SYSTEM    = UTC
MEAN_ELEMENT_THEORY = SGP/SGP4

EPOCH          = 2026-01-13T06:54:52.502688
MEAN_MOTION    = 16.00559638
ECCENTRICITY   = .00079101
INCLINATION    = 51.6224
RA_OF_ASC_NODE = 330.6229
ARG_OF_PERICENTER = 115.8495
MEAN_ANOMALY   = 244.3332

EPHEMERIS_TYPE = 0
CLASSIFICATION_TYPE = U
NORAD_CAT_ID   = 65733
ELEMENT_SET_NO = 999
REV_AT_EPOCH   = 1818
BSTAR          = .15177102E-2
MEAN_MOTION_DOT = .822248E-2
MEAN_MOTION_DDOT = .32923442E-3

CCSDS_OMM_VERS = 2.0
CREATION_DATE  = 
ORIGINATOR     = 

OBJECT_NAME    = YOTSUBA-KULOVER
OBJECT_ID      = 1998-067XN
CENTER_NAME    = EARTH
REF_FRAME      = TEME
TIME_SYSTEM    = UTC
MEAN_ELEMENT_THEORY = SGP/SGP4

EPOCH          = 2026-01-13T04:37:15.053376
MEAN_MOTION    = 15.64644119
ECCENTRICITY   = .00039931
INCLINATION    = 51.6291
RA_OF_ASC_NODE = 341.3228
ARG_OF_PERICENTER = 97.5495
MEAN_ANOMALY   = 262.5954

EPHEMERIS_TYPE = 0
CLASSIFICATION_TYPE = U
NORAD_CAT_ID   = 65941
ELEMENT_SET_NO = 999
REV_AT_EPOCH   = 1477
BSTAR          = .69527816E-3
MEAN_MOTION_DOT = .68729E-3
MEAN_MOTION_DDOT = 0

CCSDS_OMM_VERS = 2.0
CREATION_DATE  = 
ORIGINATOR     = 

OBJECT_NAME    = BOTAN
OBJECT_ID      = 1998-067XP
CENTER_NAME    = EARTH
REF_FRAME      = TEME
TIME_SYSTEM    = UTC
MEAN_ELEMENT_THEORY = SGP/SGP4

EPOCH          = 2026-01-13T03:56:10.039776
MEAN_MOTION    = 15.71375969
ECCENTRICITY   = .00047834
INCLINATION    = 51.6267
RA_OF_ASC_NODE = 339.6215
ARG_OF_PERICENTER = 94.7833
MEAN_ANOMALY   = 265.3711

EPHEMERIS_TYPE = 0
CLASSIFICATION_TYPE = U
NORAD_CAT_ID   = 65942
ELEMENT_SET_NO = 999
REV_AT_EPOCH   = 1479
BSTAR          = .94034554E-3
MEAN_MOTION_DOT = .123618E-2
MEAN_MOTION_DDOT = 0

CCSDS_OMM_VERS = 2.0
CREATION_DATE  = 
ORIGINATOR     = 

OBJECT_NAME    = E-KAGAKU-1
OBJECT_ID      = 1998-067XQ
CENTER_NAME    = EARTH
REF_FRAME      = TEME
TIME_SYSTEM    = UTC
MEAN_ELEMENT_THEORY = SGP/SGP4

EPOCH          = 2026-01-13T03:05:07.721376
MEAN_MOTION    = 15.64624113
ECCENTRICITY   = .00026685
INCLINATION    = 51.6312
RA_OF_ASC_NODE = 341.6522
ARG_OF_PERICENTER = 95.8815
MEAN_ANOMALY   = 264.2485

EPHEMERIS_TYPE = 0
CLASSIFICATION_TYPE = U
NORAD_CAT_ID   = 65943
ELEMENT_SET_NO = 999
REV_AT_EPOCH   = 1476
BSTAR          = .66193219E-3
MEAN_MOTION_DOT = .65315E-3
MEAN_MOTION_DDOT = 0

CCSDS_OMM_VERS = 2.0
CREATION_DATE  = 
ORIGINATOR     = 

OBJECT_NAME    = HRC MONOBLOCK CAMERA
OBJECT_ID      = 1998-067XR
CENTER_NAME    = EARTH
REF_FRAME      = TEME
TIME_SYSTEM    = UTC
MEAN_ELEMENT_THEORY = SGP/SGP4

EPOCH          = 2026-01-13T04:47:05.327808
MEAN_MOTION    = 15.56569969
ECCENTRICITY   = .00011309
INCLINATION    = 51.6306
RA_OF_ASC_NODE = 344.3689
ARG_OF_PERICENTER = 355.6118
MEAN_ANOMALY   = 4.4863

EPHEMERIS_TYPE = 0
CLASSIFICATION_TYPE = U
NORAD_CAT_ID   = 66052
ELEMENT_SET_NO = 999
REV_AT_EPOCH   = 1373
BSTAR          = .40560559E-3
MEAN_MOTION_DOT = .2899E-3
MEAN_MOTION_DDOT = 0

CCSDS_OMM_VERS = 2.0
CREATION_DATE  = 
ORIGINATOR     = 

OBJECT_NAME    = HTV-X1
OBJECT_ID      = 2025-241A
CENTER_NAME    = EARTH
REF_FRAME      = TEME
TIME_SYSTEM    = UTC
MEAN_ELEMENT_THEORY = SGP/SGP4

EPOCH          = 2026-01-13T05:00:55.752768
MEAN_MOTION    = 15.49269250
ECCENTRICITY   = .00077414
INCLINATION    = 51.6330
RA_OF_ASC_NODE = 346.6801
ARG_OF_PERICENTER = 12.6584
MEAN_ANOMALY   = 347.4598

EPHEMERIS_TYPE = 0
CLASSIFICATION_TYPE = U
NORAD_CAT_ID   = 66174
ELEMENT_SET_NO = 999
REV_AT_EPOCH   = 51
BSTAR          = .16698581E-3
MEAN_MOTION_DOT = .8852E-4
MEAN_MOTION_DDOT = 0

CCSDS_OMM_VERS = 2.0
CREATION_DATE  = 
ORIGINATOR     = 

OBJECT_NAME    = SZ-21 MODULE
OBJECT_ID      = 2025-246C
CENTER_NAME    = EARTH
REF_FRAME      = TEME
TIME_SYSTEM    = UTC
MEAN_ELEMENT_THEORY = SGP/SGP4

EPOCH          = 2026-01-13T03:49:47.085600
MEAN_MOTION    = 15.64420875
ECCENTRICITY   = .00017457
INCLINATION    = 41.4740
RA_OF_ASC_NODE = 184.1107
ARG_OF_PERICENTER = 156.7116
MEAN_ANOMALY   = 203.3803

EPHEMERIS_TYPE = 0
CLASSIFICATION_TYPE = U
NORAD_CAT_ID   = 66515
ELEMENT_SET_NO = 999
REV_AT_EPOCH   = 936
BSTAR          = .23567316E-3
MEAN_MOTION_DOT = .23002E-3
MEAN_MOTION_DDOT = 0

CCSDS_OMM_VERS = 2.0
CREATION_DATE  = 
ORIGINATOR     = 

OBJECT_NAME    = SHENZHOU-22
OBJECT_ID      = 2025-272A
CENTER_NAME    = EARTH
REF_FRAME      = TEME
TIME_SYSTEM    = UTC
MEAN_ELEMENT_THEORY = SGP/SGP4

EPOCH          = 2026-01-13T03:37:59.080800
MEAN_MOTION    = 15.60470447
ECCENTRICITY   = .00114966
INCLINATION    = 41.4653
RA_OF_ASC_NODE = 185.8172
ARG_OF_PERICENTER = 274.9495
MEAN_ANOMALY   = 85.0032

EPHEMERIS_TYPE = 0
CLASSIFICATION_TYPE = U
NORAD_CAT_ID   = 66645
ELEMENT_SET_NO = 999
REV_AT_EPOCH   = 26764
BSTAR          = .19385442E-3
MEAN_MOTION_DOT = .16157E-3
MEAN_MOTION_DDOT = 0

