CYGNUS NG-23            
1 65616U 25208A   26013.20897862  .00008852  00000+0  16699-3 0  9991
2 65616  51.6330 346.6801 0007741  12.6584 347.4598 15.49269250   224
DRAGONFLY               
1 65729U 98067XH  26013.26090517  .00362063  00000+0  12320-2 0  9990
2 65729  51.6217 332.7016 0008104 101.8140 258.3775 15.88290760 18140
1998-067XK              
1 65731U 98067XK  26013.12953435  .00109037  00000+0  76195-3 0  9996
2 65731  51.6285 337.1409 0004914  72.1641 287.9894 15.73432001 18076
RSP-03                  
1 65732U 98067XL  26013.11400561  .00176230  00000+0  93053-3 0  9994
2 65732  51.6260 335.5089 0005970  81.6480 278.5198 15.79550150 18104
GHS-01                  
1 65733U 98067XM  26013.28810767  .00822248  32923-3  15177-2 0  9996
2 65733  51.6224 330.6229 0007910 115.8495 244.3332 16.00559638 18183
YOTSUBA-KULOVER         
1 65941U 98067XN  26013.19253534  .00068729  00000+0  69528-3 0  9993
2 65941  51.6291 341.3228 0003993  97.5495 262.5954 15.64644119 14770
BOTAN                   
1 65942U 98067XP  26013.16400509  .00123618  00000+0  94035-3 0  9997
2 65942  51.6267 339.6215 0004783  94.7833 265.3711 15.71375969 14799
E-KAGAKU-1              
1 65943U 98067XQ  26013.12856159  .00065315  00000+0  66193-3 0  9993
2 65943  51.6312 341.6522 0002668  95.8815 264.2485 15.64624113 14760
HRC MONOBLOCK CAMERA    
1 66052U 98067XR  26013.19936722  .00028990  00000+0  40561-3 0  9996
2 66052  51.6306 344.3689 0001130 355.6118   4.4863 15.56569969 13733
HTV-X1                  
1 66174U 25241A   26013.20897862  .00008852  00000+0  16699-3 0  9998
2 66174  51.6330 346.6801 0007741  12.6584 347.4598 15.49269250   516
SZ-21 MODULE            
1 66515U 25246C   26013.15957275  .00023002  00000+0  23567-3 0  9997
2 66515  41.4740 184.1107 0001745 156.7116 203.3803 15.64420875  9360
SHENZHOU-22             
1 66645U 25272A   26013.15137825  .00016157  00000+0  19385-3 0  9997
2 66645  41.4653 185.8172 0011496 274.9495  85.0032 15.60470447267646
